[Satellite]
VERSION=1.1
NAME=ONEWEB-0497
NICKNAME=ONEWEB-0497
TLE1=1 54116U 22138D   22321.58334491 -.00841326  00000+0 -13038+0 0  9999
TLE2=2 54116  87.4447 208.5784 0013928 198.5550 215.4238 14.75956750  4708
STATUS=0
